ONEWEB-0321             
1 49191U 21083F   24261.93481063  .00000091  00000+0  19095-3 0  9993
2 49191  87.9237  41.1903 0001852 104.5949 255.5390 13.20774368153995
ONEWEB-0322             
1 49192U 21083G   24262.08156030 -.00000232  00000+0 -66954-3 0  9999
2 49192  87.8856  87.0195 0002006 100.1473 259.9883 13.13472017148571
ONEWEB-0324             
1 49193U 21083H   24261.62142778 -.00000004  00000+0 -42845-4 0  9994
2 49193  87.9063 102.3605 0001936  78.6559 281.4791 13.18687511145976
ONEWEB-0325             
1 49194U 21083J   24261.92969341 -.00000011  00000+0 -60068-4 0  9996
2 49194  87.9063 102.3140 0001718  86.8185 273.3143 13.18685661146027
ONEWEB-0326             
1 49195U 21083K   24262.09564225  .00001793  00000+0  45132-2 0  9997
2 49195  87.9059 102.2776 0001828  71.0890 289.0440 13.18702709147318
ONEWEB-0327             
1 49196U 21083L   24261.93812394  .00000073  00000+0  15686-3 0  9995
2 49196  87.9061 102.3314 0001516  73.1550 286.9747 13.17170670146030
ONEWEB-0328             
1 49197U 21083M   24261.99584223 -.00000127  00000+0 -38371-3 0  9997
2 49197  87.8845  87.0112 0001798  84.6635 275.4700 13.13466348148544
